[{"OBJECT_NAME":"STARLINK-2433","OBJECT_ID":"2021-018BG","EPOCH":"2026-03-09T16:09:20.484864","MEAN_MOTION":15.06389668,"ECCENTRICITY":0.00013526,"INCLINATION":53.0555,"RA_OF_ASC_NODE":231.6908,"ARG_OF_PERICENTER":104.5214,"MEAN_ANOMALY":255.5925,"EPHEMERIS_TYPE":0,"CLASSIFICATION_TYPE":"U","NORAD_CAT_ID":47841,"ELEMENT_SET_NO":999,"REV_AT_EPOCH":27687,"BSTAR":0.00014374564,"MEAN_MOTION_DOT":1.86e-5,"MEAN_MOTION_DDOT":0},{"OBJECT_NAME":"SS 3","OBJECT_ID":"1977-112F","EPOCH":"2026-03-09T11:00:16.769952","MEAN_MOTION":14.02902253,"ECCENTRICITY":0.04940828,"INCLINATION":63.3287,"RA_OF_ASC_NODE":97.995,"ARG_OF_PERICENTER":162.0806,"MEAN_ANOMALY":199.8388,"EPHEMERIS_TYPE":0,"CLASSIFICATION_TYPE":"U","NORAD_CAT_ID":10594,"ELEMENT_SET_NO":999,"REV_AT_EPOCH":35330,"BSTAR":0.00018531048,"MEAN_MOTION_DOT":7.13e-6,"MEAN_MOTION_DDOT":0}]
